TEVEL2-7                
1 63238U 25052AE  26068.66113296  .00019244  00000+0  69668-3 0  9999
2 63238  97.4054 324.3041 0008104 124.6830 235.5175 15.28414096 54802
STARLINK-33716          
1 63486U 25070AC  26068.91949223  .00037283  00000+0  13568-2 0  9999
2 63486  43.0054 258.3221 0002896 275.4213  84.6308 15.27596358 53016
